H1 CPF  2  SGF 2024 11 21  2  326 01 lares2    
H2  2208001 5988    53105 2024 11 20  0  0  0 2024 11 25 23 54  0   300 1 1  0 0 0 1
H9
10 0 60637  81600.00000  0   3400587.011   4438189.516 -10933164.910
10 0 60637  81900.00000  0   3101896.805   5902300.013 -10311514.439
10 0 60637  82200.00000  0   2806661.074   7268155.132  -9490447.266
10 0 60637  82500.00000  0   2515556.574   8509791.825  -8485774.057
10 0 60637  82800.00000  0   2228097.207   9603554.247  -7316858.732
10 0 60637  83100.00000  0   1942756.845  10528590.203  -6006255.403
10 0 60637  83400.00000  0   1657132.288  11267292.174  -4579282.202
10 0 60637  83700.00000  0   1368139.782  11805672.338  -3063539.144
10 0 60637  84000.00000  0   1072239.216  12133661.897  -1488378.458
10 0 60637  84300.00000  0    765677.524  12245326.867    115662.680
10 0 60637  84600.00000  0    444743.271  12138994.237   1717455.864
10 0 60637  84900.00000  0    106023.957  11817284.694   3285889.639
10 0 60637  85200.00000  0   -253343.732  11287050.674   4790479.353
10 0 60637  85500.00000  0   -635438.471  10559220.944   6201965.921
10 0 60637  85800.00000  0  -1041343.084   9648555.635   7492890.707
10 0 60637  86100.00000  0  -1470964.202   8573317.958   8638134.619
10 0 60638      0.00000  0  -1922890.575   7354871.062   9615410.298
10 0 60638    300.00000  0  -2394294.769   6017210.298  10405697.705
10 0 60638    600.00000  0  -2880883.392   4586442.425  10993614.845
10 0 60638    900.00000  0  -3376898.477   3090224.305  11367716.814
10 0 60638   1200.00000  0  -3875171.519   1557174.263  11520717.934
10 0 60638   1500.00000  0  -4367230.444     16269.400  11449633.143
10 0 60638   1800.00000  0  -4843457.664  -1503757.577  11155836.275
10 0 60638   2100.00000  0  -5293296.295  -2975009.039  10645034.227
10 0 60638   2400.00000  0  -5705499.913  -4370987.632   9927157.402
10 0 60638   2700.00000  0  -6068419.716  -5667124.207   9016168.141
10 0 60638   3000.00000  0  -6370321.909  -6841256.726   7929790.314
10 0 60638   3300.00000  0  -6599726.589  -7874050.217   6689164.694
10 0 60638   3600.00000  0  -6745758.620  -8749348.483   5318436.336
10 0 60638   3900.00000  0  -6798500.617  -9454449.866   3844281.625
10 0 60638   4200.00000  0  -6749336.878  -9980301.615   2295384.340
10 0 60638   4500.00000  0  -6591278.450 -10321608.563    701871.228
10 0 60638   4800.00000  0  -6319258.273 -10476855.081   -905281.027
10 0 60638   5100.00000  0  -5930387.797 -10448240.531  -2494854.975
10 0 60638   5400.00000  0  -5424165.749 -10241531.980  -4036004.632
10 0 60638   5700.00000  0  -4802632.881  -9865839.077  -5498857.813
10 0 60638   6000.00000  0  -4070466.444  -9333319.139  -6855096.048
10 0 60638   6300.00000  0  -3235010.887  -8658821.577  -8078500.383
10 0 60638   6600.00000  0  -2306242.852  -7859482.250  -9145452.682
10 0 60638   6900.00000  0  -1296669.395  -6954279.720 -10035383.254
10 0 60638   7200.00000  0   -221161.280  -5963565.119 -10731157.352
10 0 60638   7500.00000  0    903276.759  -4908578.131 -11219394.388
10 0 60638   7800.00000  0   2057794.232  -3810960.742 -11490715.331
10 0 60638   8100.00000  0   3222036.955  -2692280.169 -11539914.934
10 0 60638   8400.00000  0   4374536.172  -1573571.469 -11366056.665
10 0 60638   8700.00000  0   5493137.697   -474909.342 -10972489.223
10 0 60638   9000.00000  0   6555462.390    584982.322 -10366784.501
10 0 60638   9300.00000  0   7539388.650   1589075.502  -9560597.756
10 0 60638   9600.00000  0   8423546.517   2522331.662  -8569451.829
10 0 60638   9900.00000  0   9187812.359   3371938.255  -7412448.203
10 0 60638  10200.00000  0   9813792.220   4127484.694  -6111909.109
10 0 60638  10500.00000  0  10285281.996   4781074.470  -4692956.028
10 0 60638  10800.00000  0  10588691.969   5327372.937  -3183031.571
10 0 60638  11100.00000  0  10713424.293   5763590.201  -1611373.094
10 0 60638  11400.00000  0  10652192.128   6089401.711     -8447.876
10 0 60638  11700.00000  0  10401270.797   6306809.757   1594639.050
10 0 60638  12000.00000  0   9960673.035   6419950.722   3166752.453
10 0 60638  12300.00000  0   9334241.742   6434855.451   4677337.115
10 0 60638  12600.00000  0   8529656.818   6359169.786   6097017.931
10 0 60638  12900.00000  0   7558353.940   6201845.225   7398177.101
10 0 60638  13200.00000  0   6435356.646   5972808.662   8555496.436
10 0 60638  13500.00000  0   5179024.276   5682622.306   9546453.570
10 0 60638  13800.00000  0   3810721.599   5342143.407  10351762.272
10 0 60638  14100.00000  0   2354416.758   4962194.449  10955748.403
10 0 60638  14400.00000  0    836216.558   4553253.016  11346654.627
10 0 60638  14700.00000  0   -716150.875   4125169.906  11516868.546
10 0 60638  15000.00000  0  -2273895.146   3686923.169  11463070.336
10 0 60638  15300.00000  0  -3807752.138   3246414.095  11186297.474
10 0 60638  15600.00000  0  -5288589.690   2810309.990  10691925.444
10 0 60638  15900.00000  0  -6688017.089   2383937.125   9989564.664
10 0 60638  16200.00000  0  -7978985.179   1971225.366   9092875.226
10 0 60638  16500.00000  0  -9136363.298   1574705.079   8019302.453
10 0 60638  16800.00000  0 -10137479.870   1195554.618   6789737.791
10 0 60638  17100.00000  0 -10962613.615    833695.706   5428111.157
10 0 60638  17400.00000  0 -11595423.413    487932.834   3960922.315
10 0 60638  17700.00000  0 -12023306.045    156130.432   2416720.502
10 0 60638  18000.00000  0 -12237672.654   -164577.902    825542.685
10 0 60638  18300.00000  0 -12234136.806   -477556.742   -781677.739
10 0 60638  18600.00000  0 -12012609.380   -786419.977  -2373719.384
10 0 60638  18900.00000  0 -11577298.089  -1094775.596  -3919685.377
10 0 60638  19200.00000  0 -10936612.140  -1405971.968  -5389606.957
10 0 60638  19500.00000  0 -10102975.061  -1722855.276  -6755025.611
10 0 60638  19800.00000  0  -9092551.218  -2047546.117  -7989541.922
10 0 60638  20100.00000  0  -7924893.675  -2381242.750  -9069320.654
10 0 60638  20400.00000  0  -6622522.669  -2724058.570  -9973542.762
10 0 60638  20700.00000  0  -5210445.473  -3074898.827 -10684796.774
10 0 60638  21000.00000  0  -3715629.050  -3431381.974 -11189403.307
10 0 60638  21300.00000  0  -2166437.704  -3789808.384 -11477668.096
10 0 60638  21600.00000  0   -592047.776  -4145178.966 -11544060.087
10 0 60638  21900.00000  0    978148.118  -4491263.905 -11387312.398
10 0 60638  22200.00000  0   2515135.503  -4820721.021 -11010444.936
10 0 60638  22500.00000  0   3990859.164  -5125261.295 -10420708.441
10 0 60638  22800.00000  0   5378779.414  -5395858.127  -9629450.607
10 0 60638  23100.00000  0   6654392.660  -5622995.062  -8651906.039
10 0 60638  23400.00000  0   7795705.403  -5796946.010  -7506912.776
10 0 60638  23700.00000  0   8783652.157  -5908079.994  -6216559.503
10 0 60638  24000.00000  0   9602447.965  -5947182.445  -4805768.711
10 0 60638  24300.00000  0  10239868.130  -5905782.996  -3301822.685
10 0 60638  24600.00000  0  10687448.319  -5776480.572  -1733840.530
10 0 60638  24900.00000  0  10940600.824  -5553254.931   -132215.945
10 0 60638  25200.00000  0  10998644.158  -5231754.817   1471973.260
10 0 60638  25500.00000  0  10864745.485  -4809553.370   3047572.042
10 0 60638  25800.00000  0  10545778.167  -4286361.166   4563958.609
10 0 60638  26100.00000  0  10052098.291  -3664190.049   5991645.792
10 0 60638  26400.00000  0   9397247.155  -2947460.395   7302860.421
10 0 60638  26700.00000  0   8597587.812  -2143047.874   8472088.723
10 0 60638  27000.00000  0   7671886.224  -1260265.602   9476576.475
10 0 60638  27300.00000  0   6640848.148   -310781.079  10296773.974
10 0 60638  27600.00000  0   5526624.281    691532.562  10916717.295
10 0 60638  27900.00000  0   4352296.234   1730808.685  11324338.743
10 0 60638  28200.00000  0   3141356.101   2789459.099  11511701.059
10 0 60638  28500.00000  0   1917192.064   3848501.084  11475151.323
10 0 60638  28800.00000  0    702591.889   4887932.668  11215392.020
10 0 60638  29100.00000  0   -480724.746   5887148.615  10737468.097
10 0 60638  29400.00000  0  -1612534.834   6825387.925  10050670.161
10 0 60638  29700.00000  0  -2674492.921   7682202.779   9168355.391
10 0 60638  30000.00000  0  -3650456.124   8437937.842   8107689.055
10 0 60638  30300.00000  0  -4526747.375   9074208.095   6889311.032
10 0 60638  30600.00000  0  -5292351.837   9574362.864   5536933.271
10 0 60638  30900.00000  0  -5939043.010   9923923.872   4076875.613
10 0 60638  31200.00000  0  -6461437.598  10110984.854   2537549.067
10 0 60638  31500.00000  0  -6856978.759  10126561.841    948896.854
10 0 60638  31800.00000  0  -7125850.803   9964883.331   -658195.076
10 0 60638  32100.00000  0  -7270828.628   9623612.215  -2252505.694
10 0 60638  32400.00000  0  -7297068.721   9103992.021  -3803091.616
10 0 60638  32700.00000  0  -7211848.442   8410913.418  -5279891.873
10 0 60638  33000.00000  0  -7024263.280   7552898.039  -6654312.074
10 0 60638  33300.00000  0  -6744891.766   6541999.710  -7899776.145
10 0 60638  33600.00000  0  -6385438.483   5393625.149  -8992235.061
10 0 60638  33900.00000  0  -5958366.596   4126277.572  -9910623.236
10 0 60638  34200.00000  0  -5476529.984   2761229.216 -10637254.868
10 0 60638  34500.00000  0  -4952815.811   1322129.256 -11158153.850
10 0 60638  34800.00000  0  -4399806.576   -165444.310 -11463312.459
10 0 60638  35100.00000  0  -3829470.534  -1674480.145 -11546875.262
10 0 60638  35400.00000  0  -3252887.648  -3177066.155 -11407245.982
10 0 60638  35700.00000  0  -2680017.293  -4644949.050 -11047116.057
10 0 60638  36000.00000  0  -2119512.365  -6050109.648 -10473414.637
10 0 60638  36300.00000  0  -1578583.383  -7365342.433  -9697180.619
10 0 60638  36600.00000  0  -1062914.276  -8564827.461  -8733358.393
10 0 60638  36900.00000  0   -576630.949  -9624682.295  -7600519.925
10 0 60638  37200.00000  0   -122321.326 -10523481.648  -6320517.183
10 0 60638  37500.00000  0    298894.543 -11242732.508  -4918070.059
99